{"type": "FeatureCollection", "features": [ {"type": "Feature", "properties": {"norad_id": 35834, "name": "COSMOS 2251 DEB", "group": "cosmos-2251-debris", "lat": 0.33213587407642375, "lon": 110.8152027001647, "alt_km": 851.0744498115791, "timestamp": "2025-12-20T09:36:02.045870+00:00", "meta": {"OBJECT_NAME": "COSMOS 2251 DEB", "OBJECT_ID": "1993-036ATG", "EPOCH": "2025-12-18T21:21:21.733632", "MEAN_MOTION": 14.12989535, "ECCENTRICITY": 0.01093187, "INCLINATION": 73.9334, "RA_OF_ASC_NODE": 293.5971, "ARG_OF_PERICENTER": 92.3571, "MEAN_ANOMALY": 326.954, "EPHEMERIS_TYPE": 0, "CLASSIFICATION_TYPE": "U", "NORAD_CAT_ID": 35834, "ELEMENT_SET_NO": 999, "REV_AT_EPOCH": 66350, "BSTAR": 0.00038881457, "MEAN_MOTION_DOT": 7.43e-06, "MEAN_MOTION_DDOT": 0}, "tle": {"line1": "1 35834U 93036ATG 25352.88983488  .00000743  00000+0  38881-3 0  9991", "line2": "2 35834  73.9334 293.5971 0109318  92.3571 326.9540 14.12989535663505"}}, "geometry": {"type": "Point", "coordinates": [110.8152027001647, 0.33213587407642375]}}, {"type": "Feature", "properties": {"norad_id": 35835, "name": "COSMOS 2251 DEB", "group": "cosmos-2251-debris", "lat": 2.9199823498715243, "lon": -103.60646989384898, "alt_km": 773.5951013796212, "timestamp": "2025-12-20T09:36:02.045880+00:00", "meta": {"OBJECT_NAME": "COSMOS 2251 DEB", "OBJECT_ID": "1993-036ATH", "EPOCH": "2025-12-19T11:01:01.996032", "MEAN_MOTION": 13.82906831, "ECCENTRICITY": 0.0290943, "INCLINATION": 74.0637, "RA_OF_ASC_NODE": 257.14, "ARG_OF_PERICENTER": 37.2006, "MEAN_ANOMALY": 324.8889, "EPHEMERIS_TYPE": 0, "CLASSIFICATION_TYPE": "U", "NORAD_CAT_ID": 35835, "ELEMENT_SET_NO": 999, "REV_AT_EPOCH": 61792, "BSTAR": 0.0011701, "MEAN_MOTION_DOT": 1.745e-05, "MEAN_MOTION_DDOT": 0}, "tle": {"line1": "1 35835U 93036ATH 25353.45905088  .00001745  00000+0  11701-2 0  9990", "line2": "2 35835  74.0637 257.1400 0290943  37.2006 324.8889 13.82906831617925"}}, "geometry": {"type": "Point", "coordinates": [-103.60646989384898, 2.9199823498715243]}}, {"type": "Feature", "properties": {"norad_id": 35836, "name": "COSMOS 2251 DEB", "group": "cosmos-2251-debris", "lat": 45.89412876466806, "lon": -39.127606079998856, "alt_km": 651.3993732785566, "timestamp": "2025-12-20T09:36:02.045890+00:00", "meta": {"OBJECT_NAME": "COSMOS 2251 DEB", "OBJECT_ID": "1993-036ATJ", "EPOCH": "2025-12-19T05:15:24.984288", "MEAN_MOTION": 14.71107486, "ECCENTRICITY": 0.0023755, "INCLINATION": 74.0311, "RA_OF_ASC_NODE": 160.3491, "ARG_OF_PERICENTER": 218.3583, "MEAN_ANOMALY": 141.59, "EPHEMERIS_TYPE": 0, "CLASSIFICATION_TYPE": "U", "NORAD_CAT_ID": 35836, "ELEMENT_SET_NO": 999, "REV_AT_EPOCH": 63615, "BSTAR": 0.0014461, "MEAN_MOTION_DOT": 8.913e-05, "MEAN_MOTION_DDOT": 0}, "tle": {"line1": "1 35836U 93036ATJ 25353.21903917  .00008913  00000+0  14461-2 0  9994", "line2": "2 35836  74.0311 160.3491 0023755 218.3583 141.5900 14.71107486636159"}}, "geometry": {"type": "Point", "coordinates": [-39.127606079998856, 45.89412876466806]}}, {"type": "Feature", "properties": {"norad_id": 35837, "name": "COSMOS 2251 DEB", "group": "cosmos-2251-debris", "lat": -28.213799807501122, "lon": -174.1355849828798, "alt_km": 1275.8766331137222, "timestamp": "2025-12-20T09:36:02.045900+00:00", "meta": {"OBJECT_NAME": "COSMOS 2251 DEB", "OBJECT_ID": "1993-036ATK", "EPOCH": "2025-12-20T04:59:29.154048", "MEAN_MOTION": 13.63523619, "ECCENTRICITY": 0.0422025, "INCLINATION": 73.7219, "RA_OF_ASC_NODE": 195.2026, "ARG_OF_PERICENTER": 114.812, "MEAN_ANOMALY": 356.3531, "EPHEMERIS_TYPE": 0, "CLASSIFICATION_TYPE": "U", "NORAD_CAT_ID": 35837, "ELEMENT_SET_NO": 999, "REV_AT_EPOCH": 58078, "BSTAR": 0.0020384, "MEAN_MOTION_DOT": 2.925e-05, "MEAN_MOTION_DDOT": 0}, "tle": {"line1": "1 35837U 93036ATK 25354.20797632  .00002925  00000+0  20384-2 0  9998", "line2": "2 35837  73.7219 195.2026 0422025 114.8120 356.3531 13.63523619580787"}}, "geometry": {"type": "Point", "coordinates": [-174.1355849828798, -28.213799807501122]}}, {"type": "Feature", "properties": {"norad_id": 35839, "name": "COSMOS 2251 DEB", "group": "cosmos-2251-debris", "lat": -47.436337461643866, "lon": 144.70837113789693, "alt_km": 401.31518293121826, "timestamp": "2025-12-20T09:36:02.045910+00:00", "meta": {"OBJECT_NAME": "COSMOS 2251 DEB", "OBJECT_ID": "1993-036ATM", "EPOCH": "2025-12-18T21:09:02.023488", "MEAN_MOTION": 15.5659062, "ECCENTRICITY": 0.00051351, "INCLINATION": 74.2044, "RA_OF_ASC_NODE": 310.0858, "ARG_OF_PERICENTER": 137.0723, "MEAN_ANOMALY": 223.0896, "EPHEMERIS_TYPE": 0, "CLASSIFICATION_TYPE": "U", "NORAD_CAT_ID": 35839, "ELEMENT_SET_NO": 999, "REV_AT_EPOCH": 88663, "BSTAR": 0.0047388387, "MEAN_MOTION_DOT": 0.00352469, "MEAN_MOTION_DDOT": 0}, "tle": {"line1": "1 35839U 93036ATM 25352.88127342  .00352469  00000+0  47388-2 0  9991", "line2": "2 35839  74.2044 310.0858 0005135 137.0723 223.0896 15.56590620886633"}}, "geometry": {"type": "Point", "coordinates": [144.70837113789693, -47.436337461643866]}}, {"type": "Feature", "properties": {"norad_id": 35840, "name": "COSMOS 2251 DEB", "group": "cosmos-2251-debris", "lat": 25.10127161836167, "lon": 151.7446610208679, "alt_km": 685.3307672380615, "timestamp": "2025-12-20T09:36:02.045920+00:00", "meta": {"OBJECT_NAME": "COSMOS 2251 DEB", "OBJECT_ID": "1993-036ATN", "EPOCH": "2025-12-12T04:26:56.474304", "MEAN_MOTION": 14.37821687, "ECCENTRICITY": 0.01162768, "INCLINATION": 73.9307, "RA_OF_ASC_NODE": 159.2062, "ARG_OF_PERICENTER": 61.7798, "MEAN_ANOMALY": 299.5037, "EPHEMERIS_TYPE": 0, "CLASSIFICATION_TYPE": "U", "NORAD_CAT_ID": 35840, "ELEMENT_SET_NO": 999, "REV_AT_EPOCH": 85283, "BSTAR": 0.0026691111, "MEAN_MOTION_DOT": 8.683e-05, "MEAN_MOTION_DDOT": 0}, "tle": {"line1": "1 35840U 93036ATN 25346.18537586  .00008683  00000+0  26691-2 0  9994", "line2": "2 35840  73.9307 159.2062 0116276  61.7798 299.5037 14.37821687852835"}}, "geometry": {"type": "Point", "coordinates": [151.7446610208679, 25.10127161836167]}}, {"type": "Feature", "properties": {"norad_id": 35883, "name": "COSMOS 2251 DEB", "group": "cosmos-2251-debris", "lat": 15.928848316880627, "lon": 60.308327500415025, "alt_km": 781.5964488309455, "timestamp": "2025-12-20T09:36:02.045942+00:00", "meta": {"OBJECT_NAME": "COSMOS 2251 DEB", "OBJECT_ID": "1993-036ATW", "EPOCH": "2025-12-16T04:41:35.789568", "MEAN_MOTION": 14.50615193, "ECCENTRICITY": 0.00835028, "INCLINATION": 74.0253, "RA_OF_ASC_NODE": 63.5249, "ARG_OF_PERICENTER": 192.1269, "MEAN_ANOMALY": 197.0315, "EPHEMERIS_TYPE": 0, "CLASSIFICATION_TYPE": "U", "NORAD_CAT_ID": 35883, "ELEMENT_SET_NO": 999, "REV_AT_EPOCH": 62436, "BSTAR": 0.00022216854, "MEAN_MOTION_DOT": 8.82e-06, "MEAN_MOTION_DDOT": 0}, "tle": {"line1": "1 35883U 93036ATW 25350.19555312  .00000882  00000+0  22217-3 0  9998", "line2": "2 35883  74.0253  63.5249 0083502 192.1269 197.0315 14.50615193624369"}}, "geometry": {"type": "Point", "coordinates": [60.308327500415025, 15.928848316880627]}}, {"type": "Feature", "properties": {"norad_id": 35884, "name": "COSMOS 2251 DEB", "group": "cosmos-2251-debris", "lat": 46.26132540185977, "lon": 124.68017317878908, "alt_km": 730.4568042170176, "timestamp": "2025-12-20T09:36:02.045953+00:00", "meta": {"OBJECT_NAME": "COSMOS 2251 DEB", "OBJECT_ID": "1993-036ATX", "EPOCH": "2025-12-16T07:19:09.379488", "MEAN_MOTION": 14.25680751, "ECCENTRICITY": 0.01084022, "INCLINATION": 73.9902, "RA_OF_ASC_NODE": 329.5521, "ARG_OF_PERICENTER": 115.5254, "MEAN_ANOMALY": 245.7151, "EPHEMERIS_TYPE": 0, "CLASSIFICATION_TYPE": "U", "NORAD_CAT_ID": 35884, "ELEMENT_SET_NO": 999, "REV_AT_EPOCH": 22408, "BSTAR": 0.00087030299, "MEAN_MOTION_DOT": 2.171e-05, "MEAN_MOTION_DDOT": 0}, "tle": {"line1": "1 35884U 93036ATX 25350.30496967  .00002171  00000+0  87030-3 0  9999", "line2": "2 35884  73.9902 329.5521 0108402 115.5254 245.7151 14.25680751224085"}}, "geometry": {"type": "Point", "coordinates": [124.68017317878908, 46.26132540185977]}}, {"type": "Feature", "properties": {"norad_id": 35885, "name": "COSMOS 2251 DEB", "group": "cosmos-2251-debris", "lat": -62.33921909168569, "lon": 133.8114919214636, "alt_km": 779.8939589818156, "timestamp": "2025-12-20T09:36:02.045963+00:00", "meta": {"OBJECT_NAME": "COSMOS 2251 DEB", "OBJECT_ID": "1993-036ATY", "EPOCH": "2025-12-20T03:26:35.075328", "MEAN_MOTION": 14.37533369, "ECCENTRICITY": 0.0023612, "INCLINATION": 74.0287, "RA_OF_ASC_NODE": 281.1634, "ARG_OF_PERICENTER": 0.0497, "MEAN_ANOMALY": 0.0654, "EPHEMERIS_TYPE": 0, "CLASSIFICATION_TYPE": "U", "NORAD_CAT_ID": 35885, "ELEMENT_SET_NO": 999, "REV_AT_EPOCH": 65122, "BSTAR": 0.00021713, "MEAN_MOTION_DOT": 6.26e-06, "MEAN_MOTION_DDOT": 0}, "tle": {"line1": "1 35885U 93036ATY 25354.14346152  .00000626  00000+0  21713-3 0  9995", "line2": "2 35885  74.0287 281.1634 0023612   0.0497   0.0654 14.37533369651223"}}, "geometry": {"type": "Point", "coordinates": [133.8114919214636, -62.33921909168569]}}, {"type": "Feature", "properties": {"norad_id": 35888, "name": "COSMOS 2251 DEB", "group": "cosmos-2251-debris", "lat": 50.94582020453186, "lon": 2.748781184288641, "alt_km": 675.3157041727045, "timestamp": "2025-12-20T09:36:02.045973+00:00", "meta": {"OBJECT_NAME": "COSMOS 2251 DEB", "OBJECT_ID": "1993-036AUB", "EPOCH": "2025-12-19T16:53:26.890080", "MEAN_MOTION": 14.58341015, "ECCENTRICITY": 0.00479832, "INCLINATION": 74.0337, "RA_OF_ASC_NODE": 343.4108, "ARG_OF_PERICENTER": 113.3266, "MEAN_ANOMALY": 247.2958, "EPHEMERIS_TYPE": 0, "CLASSIFICATION_TYPE": "U", "NORAD_CAT_ID": 35888, "ELEMENT_SET_NO": 999, "REV_AT_EPOCH": 86375, "BSTAR": 0.00026393359, "MEAN_MOTION_DOT": 1.211e-05, "MEAN_MOTION_DDOT": 0}, "tle": {"line1": "1 35888U 93036AUB 25353.70378345  .00001211  00000+0  26393-3 0  9998", "line2": "2 35888  74.0337 343.4108 0047983 113.3266 247.2958 14.58341015863752"}}, "geometry": {"type": "Point", "coordinates": [2.748781184288641, 50.94582020453186]}}]}